Satellite: NO-61
Catalog number: 29667
Epoch time:      07061.85874725
Element set:      69
Inclination:      051.6338 deg
RA of node:       290.3192 deg
Eccentricity:    0.0015021
Arg of perigee:   289.2659 deg
Mean anomaly:     070.6719 deg
Mean motion:   15.84261782 rev/day
Decay rate:     1.8095e-04 rev/day^2
Epoch rev:            1112
Checksum:              324

/EX
SB KEPS @ AMSAT  $ORB07061.W
Orbital Elements  07061.WEATHER

HR AMSAT ORBITAL ELEMENTS FOR WEATHER SATELLITES
FROM WA5QGD FORT WORTH,TX March 2, 2007
Send SUBSCRIBE KEPS/UNSUBSCRIBE KEPS to majordomo at amsat.org only
BID: ORB07061.W
TO ALL RADIO AMATEURS BT

Satellite: NOAA-10
Catalog number: 16969
Epoch time:      07061.11876687
Element set:     568
Inclination:      098.7534 deg
RA of node:       078.2019 deg
Eccentricity:    0.0013053
Arg of perigee:   117.3377 deg
Mean anomaly:     242.9121 deg
Mean motion:   14.27318519 rev/day
Decay rate:        7.0e-08 rev/day^2
Epoch rev:            6395
Checksum:              317

Satellite: NOAA-11
Catalog number: 19531
Epoch time:      07061.34616602
Element set:     561
Inclination:      098.8119 deg
RA of node:       151.8446 deg
Eccentricity:    0.0011495
Arg of perigee:   339.1120 deg
Mean anomaly:     020.9559 deg
Mean motion:   14.14836535 rev/day
Decay rate:       -3.9e-07 rev/day^2
Epoch rev:           95104
Checksum:              292

Satellite: NOAA-12
Catalog number: 21263
Epoch time:      07061.47519273
Element set:      55
Inclination:      098.7494 deg
RA of node:       058.9087 deg
Eccentricity:    0.0013433
Arg of perigee:   059.8569 deg
Mean anomaly:     300.3950 deg
Mean motion:   14.25522706 rev/day
Decay rate:      -1.18e-06 rev/day^2
Epoch rev:           82104
Checksum:              303

Satellite: MET-3/5
Catalog number: 21655
Epoch time:      07061.89097243
Element set:     233
Inclination:      082.5499 deg
RA of node:       078.0441 deg
Eccentricity:    0.0014228
Arg of perigee:   111.2533 deg
Mean anomaly:     249.0109 deg
Mean motion:   13.17010305 rev/day
Decay rate:        5.1e-07 rev/day^2
Epoch rev:           74741
Checksum:              271

Satellite: MET-2/21
Catalog number: 22782
Epoch time:      07061.70433366
Element set:     762
Inclination:      082.5487 deg
RA of node:       126.4013 deg
Eccentricity:    0.0022684
Arg of perigee:   170.9275 deg
Mean anomaly:     189.2309 deg
Mean motion:   13.83614340 rev/day
Decay rate:        1.9e-07 rev/day^2
Epoch rev:           68179
Checksum:              308

Satellite: OKEAN-4
Catalog number: 23317
Epoch time:      07061.87461766
Element set:     200
Inclination:      082.5384 deg
RA of node:       035.7081 deg
Eccentricity:    0.0020684
Arg of perigee:   241.2508 deg
Mean anomaly:     118.6633 deg
Mean motion:   14.82472416 rev/day
Decay rate:       1.45e-06 rev/day^2
Epoch rev:           66830
Checksum:              287

Satellite: NOAA-14
Catalog number: 23455
Epoch time:      07061.49229570
Element set:     544
Inclination:      099.0027 deg
RA of node:       127.0571 deg
Eccentricity:    0.0009630
Arg of perigee:   046.7608 deg
Mean anomaly:     313.4360 deg
Mean motion:   14.13702500 rev/day
Decay rate:        3.0e-08 rev/day^2
Epoch rev:           62756
Checksum:              272

Satellite: SICH-1
Catalog number: 23657
Epoch time:      07061.84233307
Element set:       2
Inclination:      082.5306 deg
RA of node:       176.6624 deg
Eccentricity:    0.0022785
Arg of perigee:   230.3451 deg
Mean anomaly:     129.5749 deg
Mean motion:   14.81457043 rev/day
Decay rate:       2.64e-06 rev/day^2
Epoch rev:           62028
Checksum:              282

Satellite: NOAA-15
Catalog number: 25338
Epoch time:      07061.48742340
Element set:     902
Inclination:      098.5290 deg
RA of node:       061.1924 deg
Eccentricity:    0.0010318
Arg of perigee:   345.4843 deg
Mean anomaly:     014.6052 deg
Mean motion:   14.24628264 rev/day
Decay rate:       -8.2e-07 rev/day^2
Epoch rev:           45749
Checksum:              292

Satellite: RESURS
Catalog number: 25394
Epoch time:      07060.78368157
Element set:    0593
Inclination:      098.4573 deg
RA of node:       119.4973 deg
Eccentricity:    0.0001864
Arg of perigee:   116.4449 deg
Mean anomaly:     243.6922 deg
Mean motion:   14.24128530 rev/day
Decay rate:       -8.0e-08 rev/day^2
Epoch rev:           44906
Checksum:              317

Satellite: FENGYUN1
Catalog number: 25730
Epoch time:      07061.64519636
Element set:     989
Inclination:      098.6829 deg
RA of node:       049.5816 deg
Eccentricity:    0.0022195
Arg of perigee:   065.9050 deg
Mean anomaly:     294.4377 deg
Mean motion:   14.07430565 rev/day
Decay rate:       2.15e-06 rev/day^2
Epoch rev:           40247
Checksum:              322

Satellite: OKEAN-0
Catalog number: 25860
Epoch time:      07060.79932886
Element set:    0993
Inclination:      097.7319 deg
RA of node:       068.0663 deg
Eccentricity:    0.0001596
Arg of perigee:   047.2825 deg
Mean anomaly:     312.8517 deg
Mean motion:   14.73433435 rev/day
Decay rate:        6.7e-07 rev/day^2
Epoch rev:           40968
Checksum:              336

Satellite: NOAA-16
Catalog number: 26536
Epoch time:      07061.50538901
Element set:     313
Inclination:      099.1056 deg
RA of node:       036.6504 deg
Eccentricity:    0.0011230
Arg of perigee:   112.1978 deg
Mean anomaly:     248.0391 deg
Mean motion:   14.12406968 rev/day
Decay rate:      -1.82e-06 rev/day^2
Epoch rev:           33204
Checksum:              273

Satellite: NOAA-17
Catalog number: 27453
Epoch time:      07061.49617112
Element set:     327
Inclination:      098.5904 deg
RA of node:       133.3145 deg
Eccentricity:    0.0012172
Arg of perigee:   048.5744 deg
Mean anomaly:     311.6471 deg
Mean motion:   14.23858272 rev/day
Decay rate:       1.59e-06 rev/day^2
Epoch rev:           24353
Checksum:              293

Satellite: NOAA-18
Catalog number: 28654
Epoch time:      07061.39438972
Element set:     866
Inclination:      098.8186 deg
RA of node:       004.5251 deg
Eccentricity:    0.0013962
Arg of perigee:   208.2694 deg
Mean anomaly:     151.7734 deg
Mean motion:   14.11042805 rev/day
Decay rate:       4.10e-06 rev/day^2
Epoch rev:            9179
Checksum:              317

/EX
SB KEPS @ AMSAT  $ORB07061.M
Orbital Elements  07061.MISC

HR AMSAT ORBITAL ELEMENTS FOR MANNED AND MISCELLANEOUS SATELLITES
FROM WA5QGD FORT WORTH,TX March 2, 2007
Send SUBSCRIBE KEPS/UNSUBSCRIBE KEPS to majordomo at amsat.org only
BID: ORB07061.M
TO ALL RADIO AMATEURS BT

Satellite: HUBBLE
Catalog number: 20580
Epoch time:      07060.63539996
Element set:    0822
Inclination:      028.4664 deg
RA of node:       171.4204 deg
Eccentricity:    0.0003509
Arg of perigee:   037.5197 deg
Mean anomaly:     322.5637 deg
Mean motion:   15.00197874 rev/day
Decay rate:       4.35e-06 rev/day^2
Epoch rev:           72379
Checksum:              307

Satellite: UARS
Catalog number: 21701
Epoch time:      07060.99204462
Element set:    0024
Inclination:      056.9751 deg
RA of node:       058.7344 deg
Eccentricity:    0.0094194
Arg of perigee:   348.9727 deg
Mean anomaly:     010.9271 deg
Mean motion:   15.46871475 rev/day
Decay rate:      7.046e-05 rev/day^2
Epoch rev:           84915
Checksum:              317

Satellite: PO-34
Catalog number: 25520
Epoch time:      07061.53079905
Element set:     685
Inclination:      028.4598 deg
RA of node:       102.5551 deg
Eccentricity:    0.0005874
Arg of perigee:   174.4020 deg
Mean anomaly:     185.6643 deg
Mean motion:   15.16935853 rev/day
Decay rate:       4.76e-06 rev/day^2
Epoch rev:           46131
Checksum:              310

Satellite: ISS
Catalog number: 25544
Epoch time:      07061.81059565
Element set:     744
Inclination:      051.6342 deg
RA of node:       293.6996 deg
Eccentricity:    0.0020357
Arg of perigee:   270.3600 deg
Mean anomaly:     140.9890 deg
Mean motion:   15.78873422 rev/day
Decay rate:     2.1534e-04 rev/day^2
Epoch rev:           47397
Checksum:              318

Satellite: OO-38
Catalog number: 26063
Epoch time:      07060.85414335
Element set:    0853
Inclination:      100.2215 deg
RA of node:       043.6732 deg
Eccentricity:    0.0037227
Arg of perigee:   101.6736 deg
Mean anomaly:     258.8623 deg
Mean motion:   14.35797423 rev/day
Decay rate:        6.0e-08 rev/day^2
Epoch rev:           37165
Checksum:              290

Satellite: NO-45
Catalog number: 26932
Epoch time:      07060.97051444
Element set:    0561
Inclination:      067.0523 deg
RA of node:       063.4222 deg
Eccentricity:    0.0004658
Arg of perigee:   286.9492 deg
Mean anomaly:     073.1098 deg
Mean motion:   14.29550085 rev/day
Decay rate:       -6.3e-07 rev/day^2
Epoch rev:           28281
Checksum:              304

Satellite: UWE-1
Catalog number: 28892
Epoch time:      07061.26165144
Element set:     689
Inclination:      098.1424 deg
RA of node:       319.9648 deg
Eccentricity:    0.0018466
Arg of perigee:   085.6369 deg
Mean anomaly:     274.6926 deg
Mean motion:   14.59469872 rev/day
Decay rate:       1.84e-06 rev/day^2
Epoch rev:            7161
Checksum:              355

Satellite: CO-58
Catalog number: 28895
Epoch time:      07060.21554233
Element set:    0671
Inclination:      098.1443 deg
RA of node:       319.1098 deg
Eccentricity:    0.0019021
Arg of perigee:   089.6573 deg
Mean anomaly:     270.6807 deg
Mean motion:   14.59519133 rev/day
Decay rate:       1.45e-06 rev/day^2
Epoch rev:           07134
Checksum:              314

